IRIDIUM 166             
1 43570U 18061B   25023.77553761  .00000092  00000+0  25843-4 0  9994
2 43570  86.3948 269.5937 0002336  91.9082 268.2381 14.34217132340389
IRIDIUM 158             
1 43571U 18061C   25023.74382474  .00000067  00000+0  16956-4 0  9990
2 43571  86.3948 269.6166 0001909  93.6782 266.4632 14.34217255340347
IRIDIUM 165             
1 43572U 18061D   25023.76919582 -.00000138  00000+0 -56346-4 0  9997
2 43572  86.3950 269.6425 0002008  82.3043 277.8381 14.34216727340378
IRIDIUM 155             
1 43573U 18061E   25023.73113406  .00000183  00000+0  58181-4 0  9993
2 43573  86.3946 269.5528 0002143  94.8935 265.2505 14.34217014340330
IRIDIUM 154             
1 43574U 18061F   25024.20049114 -.00000254  00000+0 -97776-4 0  9995
2 43574  86.3953 269.4651 0001963  83.4438 276.6981 14.34216580340450
IRIDIUM 163             
1 43575U 18061G   25024.11169493  .00000023  00000+0  99744-6 0  9990
2 43575  86.3946 269.4336 0001898  87.0588 273.0825 14.34217610340415
IRIDIUM 156             
1 43576U 18061H   25023.73748148  .00000163  00000+0  51302-4 0  9999
2 43576  86.3949 269.5968 0002202  95.7678 264.3769 14.34217429340358
IRIDIUM 164             
1 43577U 18061J   25024.13706351  .00000656  00000+0  22731-3 0  9995
2 43577  86.3950 269.4616 0002112  81.3609 278.7826 14.34217750340456
